STARLINK-2147           
1 47736U 21017Q   26068.64274156  .00003562  00000+0  25787-3 0  9992
2 47736  53.0562 201.8296 0001356  88.3809 271.7335 15.06407208277916
GRBBETA                 
1 60237U 24128C   26068.70717138  .00006748  00000+0  46404-3 0  9996
2 60237  61.9904 205.0764 0051339 114.1677 246.4795 15.05794613 91289
